STARLINK-31427          
1 59241U 24049L   26068.24177380 -.00002200  00000+0 -70464-4 0  9994
2 59241  42.9998 146.3751 0000829 255.3591 104.7169 15.27574120112332
TEVEL2-8                
1 63239U 25052AF  26068.66815442  .00019130  00000+0  69304-3 0  9993
2 63239  97.4055 324.2923 0008031 124.9191 235.2804 15.28392908 54807
